CTC2_L_00484001-01
1 10000U 24452KL  26075.70047454  .00000000  00000+0  00000-0 0  9998
2 10000  66.0000   0.0000 0000000   0.0000   0.0000 13.81943914    19
CTC2_L_00484001-02
1 10001U 25679LM  26075.70047454  .00000000  00000+0  00000-0 0  9991
2 10001  66.0000   0.0000 0000000   0.0000 180.0000 13.81943914    19
CTC2_L_00484002-01
1 10002U 26089F   26075.70047454  .00000000  00000+0  00000-0 0  9998
2 10002  66.0000  12.0000 0000000   0.0000  24.0000 13.81943914    10
CTC2_L_00484002-02
1 10003U 26775UT  26075.70047454  .00000000  00000+0  00000-0 0  9991
2 10003  66.0000  12.0000 0000000   0.0000 204.0000 13.81943914    11
CTC2_L_00484003-01
1 10004U 24866DV  26075.70047454  .00000000  00000+0  00000-0 0  9991
2 10004  66.0000  24.0000 0000000   0.0000  48.0000 13.81943914    11
CTC2_L_00484003-02
1 10005U 24140KZ  26075.70047454  .00000000  00000+0  00000-0 0  9997
2 10005  66.0000  24.0000 0000000   0.0000 228.0000 13.81943914    12
CTC2_L_00484004-01
1 10006U 26697ST  26075.70047454  .00000000  00000+0  00000-0 0  9997
2 10006  66.0000  36.0000 0000000   0.0000  72.0000 13.81943914    13
CTC2_L_00484004-02
1 10007U 22742JD  26075.70047454  .00000000  00000+0  00000-0 0  9995
2 10007  66.0000  36.0000 0000000   0.0000 252.0000 13.81943914    14
CTC2_L_00484005-01
1 10008U 24281IN  26075.70047454  .00000000  00000+0  00000-0 0  9996
2 10008  66.0000  48.0000 0000000   0.0000  96.0000 13.81943914    14
CTC2_L_00484005-02
1 10009U 22882ZK  26075.70047454  .00000000  00000+0  00000-0 0  9992
2 10009  66.0000  48.0000 0000000   0.0000 276.0000 13.81943914    15
CTC2_L_00484006-01
1 10010U 25793YE  26075.70047454  .00000000  00000+0  00000-0 0  9998
2 10010  66.0000  60.0000 0000000   0.0000 120.0000 13.81943914    19
CTC2_L_00484006-02
1 10011U 24587LD  26075.70047454  .00000000  00000+0  00000-0 0  9999
2 10011  66.0000  60.0000 0000000   0.0000 300.0000 13.81943914    10
CTC2_L_00484007-01
1 10012U 26245XN  26075.70047454  .00000000  00000+0  00000-0 0  9993
2 10012  66.0000  72.0000 0000000   0.0000 144.0000 13.81943914    10
CTC2_L_00484007-02
1 10013U 22886MP  26075.70047454  .00000000  00000+0  00000-0 0  9991
2 10013  66.0000  72.0000 0000000   0.0000 324.0000 13.81943914    11
CTC2_L_00484008-01
1 10014U 22306WV  26075.70047454  .00000000  00000+0  00000-0 0  9999
2 10014  66.0000  84.0000 0000000   0.0000 168.0000 13.81943914    11
CTC2_L_00484008-02
1 10015U 24431BT  26075.70047454  .00000000  00000+0  00000-0 0  9991
2 10015  66.0000  84.0000 0000000   0.0000 348.0000 13.81943914    12
CTC2_L_00484009-01
1 10016U 22064FA  26075.70047454  .00000000  00000+0  00000-0 0  9992
2 10016  66.0000  96.0000 0000000   0.0000 192.0000 13.81943914    13
CTC2_L_00484009-02
1 10017U 22498AU  26075.70047454  .00000000  00000+0  00000-0 0  9994
2 10017  66.0000  96.0000 0000000   0.0000  12.0000 13.81943914    15
CTC2_L_00484010-01
1 10018U 23099LY  26075.70047454  .00000000  00000+0  00000-0 0  9993
2 10018  66.0000 108.0000 0000000   0.0000 216.0000 13.81943914    16
CTC2_L_00484010-02
1 10019U 24245CL  26075.70047454  .00000000  00000+0  00000-0 0  9998
2 10019  66.0000 108.0000 0000000   0.0000  36.0000 13.81943914    17
CTC2_L_00484011-01
1 10020U 22093UQ  26075.70047454  .00000000  00000+0  00000-0 0  9999
2 10020  66.0000 120.0000 0000000   0.0000 240.0000 13.81943914    10
CTC2_L_00484011-02
1 10021U 22201QN  26075.70047454  .00000000  00000+0  00000-0 0  9991
2 10021  66.0000 120.0000 0000000   0.0000  60.0000 13.81943914    11
CTC2_L_00484012-01
1 10022U 22250EK  26075.70047454  .00000000  00000+0  00000-0 0  9996
2 10022  66.0000 132.0000 0000000   0.0000 264.0000 13.81943914    11
CTC2_L_00484012-02
1 10023U 26647QJ  26075.70047454  .00000000  00000+0  00000-0 0  9991
2 10023  66.0000 132.0000 0000000   0.0000  84.0000 13.81943914    12
CTC2_L_00484013-01
1 10024U 25778CS  26075.70047454  .00000000  00000+0  00000-0 0  9996
2 10024  66.0000 144.0000 0000000   0.0000 288.0000 13.81943914    12
CTC2_L_00484013-02
1 10025U 24139A   26075.70047454  .00000000  00000+0  00000-0 0  9997
2 10025  66.0000 144.0000 0000000   0.0000 108.0000 13.81943914    14
CTC2_L_00484014-01
1 10026U 26857RC  26075.70047454  .00000000  00000+0  00000-0 0  9997
2 10026  66.0000 156.0000 0000000   0.0000 312.0000 13.81943914    15
CTC2_L_00484014-02
1 10027U 23890WF  26075.70047454  .00000000  00000+0  00000-0 0  9992
2 10027  66.0000 156.0000 0000000   0.0000 132.0000 13.81943914    16
CTC2_L_00484015-01
1 10028U 23002IY  26075.70047454  .00000000  00000+0  00000-0 0  9998
2 10028  66.0000 168.0000 0000000   0.0000 336.0000 13.81943914    16
CTC2_L_00484015-02
1 10029U 26802CG  26075.70047454  .00000000  00000+0  00000-0 0  9990
2 10029  66.0000 168.0000 0000000   0.0000 156.0000 13.81943914    17
CTC2_L_00484016-01
1 10030U 25764IN  26075.70047454  .00000000  00000+0  00000-0 0  9998
2 10030  66.0000 180.0000 0000000   0.0000   0.0000 13.81943914    11
CTC2_L_00484016-02
1 10031U 24702QE  26075.70047454  .00000000  00000+0  00000-0 0  9990
2 10031  66.0000 180.0000 0000000   0.0000 180.0000 13.81943914    11
CTC2_L_00484017-01
1 10032U 22765OP  26075.70047454  .00000000  00000+0  00000-0 0  9998
2 10032  66.0000 192.0000 0000000   0.0000  24.0000 13.81943914    12
CTC2_L_00484017-02
1 10033U 24823WQ  26075.70047454  .00000000  00000+0  00000-0 0  9996
2 10033  66.0000 192.0000 0000000   0.0000 204.0000 13.81943914    13
CTC2_L_00484018-01
1 10034U 25705QK  26075.70047454  .00000000  00000+0  00000-0 0  9997
2 10034  66.0000 204.0000 0000000   0.0000  48.0000 13.81943914    14
CTC2_L_00484018-02
1 10035U 23659DI  26075.70047454  .00000000  00000+0  00000-0 0  9994
2 10035  66.0000 204.0000 0000000   0.0000 228.0000 13.81943914    15
CTC2_L_00484019-01
1 10036U 24945EM  26075.70047454  .00000000  00000+0  00000-0 0  9994
2 10036  66.0000 216.0000 0000000   0.0000  72.0000 13.81943914    16
CTC2_L_00484019-02
1 10037U 22852RS  26075.70047454  .00000000  00000+0  00000-0 0  9990
2 10037  66.0000 216.0000 0000000   0.0000 252.0000 13.81943914    17
CTC2_L_00484020-01
1 10038U 23164FB  26075.70047454  .00000000  00000+0  00000-0 0  9998
2 10038  66.0000 228.0000 0000000   0.0000  96.0000 13.81943914    17
CTC2_L_00484020-02
1 10039U 24586YG  26075.70047454  .00000000  00000+0  00000-0 0  9998
2 10039  66.0000 228.0000 0000000   0.0000 276.0000 13.81943914    18
CTC2_L_00484021-01
1 10040U 26208UI  26075.70047454  .00000000  00000+0  00000-0 0  9993
2 10040  66.0000 240.0000 0000000   0.0000 120.0000 13.81943914    12
CTC2_L_00484021-02
1 10041U 22870CP  26075.70047454  .00000000  00000+0  00000-0 0  9995
2 10041  66.0000 240.0000 0000000   0.0000 300.0000 13.81943914    13
CTC2_L_00484022-01
1 10042U 23261VJ  26075.70047454  .00000000  00000+0  00000-0 0  9991
2 10042  66.0000 252.0000 0000000   0.0000 144.0000 13.81943914    13
CTC2_L_00484022-02
1 10043U 22037TI  26075.70047454  .00000000  00000+0  00000-0 0  9992
2 10043  66.0000 252.0000 0000000   0.0000 324.0000 13.81943914    14
CTC2_L_00484023-01
1 10044U 23812QM  26075.70047454  .00000000  00000+0  00000-0 0  9995
2 10044  66.0000 264.0000 0000000   0.0000 168.0000 13.81943914    14
CTC2_L_00484023-02
1 10045U 26627IJ  26075.70047454  .00000000  00000+0  00000-0 0  9993
2 10045  66.0000 264.0000 0000000   0.0000 348.0000 13.81943914    15
CTC2_L_00484024-01
1 10046U 26963LD  26075.70047454  .00000000  00000+0  00000-0 0  9997
2 10046  66.0000 276.0000 0000000   0.0000 192.0000 13.81943914    16
CTC2_L_00484024-02
1 10047U 25673WA  26075.70047454  .00000000  00000+0  00000-0 0  9995
2 10047  66.0000 276.0000 0000000   0.0000  12.0000 13.81943914    18
CTC2_L_00484025-01
1 10048U 26317WE  26075.70047454  .00000000  00000+0  00000-0 0  9992
2 10048  66.0000 288.0000 0000000   0.0000 216.0000 13.81943914    18
CTC2_L_00484025-02
1 10049U 22233PK  26075.70047454  .00000000  00000+0  00000-0 0  9996
2 10049  66.0000 288.0000 0000000   0.0000  36.0000 13.81943914    19
CTC2_L_00484026-01
1 10050U 25783HY  26075.70047454  .00000000  00000+0  00000-0 0  9991
2 10050  66.0000 300.0000 0000000   0.0000 240.0000 13.81943914    13
CTC2_L_00484026-02
1 10051U 26618QN  26075.70047454  .00000000  00000+0  00000-0 0  9990
2 10051  66.0000 300.0000 0000000   0.0000  60.0000 13.81943914    14
CTC2_L_00484027-01
1 10052U 25929IA  26075.70047454  .00000000  00000+0  00000-0 0  9995
2 10052  66.0000 312.0000 0000000   0.0000 264.0000 13.81943914    14
CTC2_L_00484027-02
1 10053U 24246AZ  26075.70047454  .00000000  00000+0  00000-0 0  9997
2 10053  66.0000 312.0000 0000000   0.0000  84.0000 13.81943914    15
CTC2_L_00484028-01
1 10054U 24341IQ  26075.70047454  .00000000  00000+0  00000-0 0  9994
2 10054  66.0000 324.0000 0000000   0.0000 288.0000 13.81943914    15
CTC2_L_00484028-02
1 10055U 22352XQ  26075.70047454  .00000000  00000+0  00000-0 0  9995
2 10055  66.0000 324.0000 0000000   0.0000 108.0000 13.81943914    17
CTC2_L_00484029-01
1 10056U 26286QE  26075.70047454  .00000000  00000+0  00000-0 0  9996
2 10056  66.0000 336.0000 0000000   0.0000 312.0000 13.81943914    18
CTC2_L_00484029-02
1 10057U 26802EQ  26075.70047454  .00000000  00000+0  00000-0 0  9991
2 10057  66.0000 336.0000 0000000   0.0000 132.0000 13.81943914    19
CTC2_L_00484030-01
1 10058U 25699ZE  26075.70047454  .00000000  00000+0  00000-0 0  9995
2 10058  66.0000 348.0000 0000000   0.0000 336.0000 13.81943914    19
CTC2_L_00484030-02
1 10059U 26124DA  26075.70047454  .00000000  00000+0  00000-0 0  9990
2 10059  66.0000 348.0000 0000000   0.0000 156.0000 13.81943914    10
